NORAD_CAT_ID,OBJECT_NAME,OBJECT_TYPE,EPOCH,MEAN_MOTION,ECCENTRICITY,INCLINATION,RA_OF_ASC_NODE,ARG_OF_PERICENTER,MEAN_ANOMALY,BSTAR,MEAN_MOTION_DOT,MEAN_MOTION_DDOT,TLE_LINE0,TLE_LINE1,TLE_LINE2,SEMIMAJOR_AXIS,PERIOD,APOGEE,PERIGEE,DECAYED
51805.0,STARLINK-3605,PAYLOAD,2024-07-19 03:30:50,15.08837714,0.0001582,53.2168,136.1621,81.8612,278.256,-1.7385e-06,-3.16e-06,0.0,0 STARLINK-3605,1 51805U 22017AP  24201.14641359 -.00000316  00000-0 -17385-5 0  9994,2 51805  53.2168 136.1621 0001582  81.8612 278.2560 15.08837714133885,6917.887,95.438,540.847,538.658,0.0
51805.0,STARLINK-3605,PAYLOAD,2024-07-19 13:03:07,15.08853426,0.0001536,53.2167,134.3823,84.1249,275.9918,9.0857e-05,1.159e-05,0.0,0 STARLINK-3605,1 51805U 22017AP  24201.54384002  .00001159  00000-0  90857-4 0  9995,2 51805  53.2167 134.3823 0001536  84.1249 275.9918 15.08853426133945,6917.839,95.437,540.767,538.642,0.0
51805.0,STARLINK-3605,PAYLOAD,2024-07-20 04:56:59,15.08840698,0.0001627,53.2176,131.399,100.9334,259.1841,0.00010293,1.351e-05,0.0,0 STARLINK-3605,1 51805U 22017AP  24202.20624841  .00001351  00000-0  10293-3 0  9996,2 51805  53.2176 131.3990 0001627 100.9334 259.1841 15.08840698134048,6917.878,95.438,540.869,538.618,0.0
51805.0,STARLINK-3605,PAYLOAD,2024-07-20 12:53:55,15.08846987,0.0001646,53.2179,129.9133,99.3604,260.7574,0.00014199,1.973e-05,0.0,0 STARLINK-3605,1 51805U 22017AP  24202.53744394  .00001973  00000-0  14199-3 0  9997,2 51805  53.2179 129.9133 0001646  99.3604 260.7574 15.08846987134098,6917.859,95.437,540.863,538.585,0.0
51805.0,STARLINK-3605,PAYLOAD,2024-07-20 22:26:14,15.08836809,0.000187,53.2162,128.1304,109.6555,250.4639,0.00015833,2.232e-05,0.0,0 STARLINK-3605,1 51805U 22017AP  24202.93489020  .00002232  00000-0  15833-3 0  9998,2 51805  53.2162 128.1304 0001870 109.6555 250.4639 15.08836809134157,6917.89,95.438,541.049,538.461,0.0
51805.0,STARLINK-3605,PAYLOAD,2024-07-21 04:47:47,15.08839079,0.0001561,53.2155,126.9425,101.0024,259.1144,2.2784e-05,7.5e-07,0.0,0 STARLINK-3605,1 51805U 22017AP  24203.19985322  .00000075  00000-0  22784-4 0  9990,2 51805  53.2155 126.9425 0001561 101.0024 259.1144 15.08839079134196,6917.883,95.438,540.828,538.668,0.0
51805.0,STARLINK-3605,PAYLOAD,2024-07-21 22:17:01,15.08838771,0.0001515,53.2162,123.6703,102.4176,257.6986,0.00010113,1.322e-05,0.0,0 STARLINK-3605,1 51805U 22017AP  24203.92849346  .00001322  00000-0  10113-3 0  9994,2 51805  53.2162 123.6703 0001515 102.4176 257.6986 15.08838771134307,6917.884,95.438,540.797,538.701,0.0
51805.0,STARLINK-3605,PAYLOAD,2024-07-22 04:38:34,15.08839987,0.0001306,53.2167,122.4819,96.1609,263.9532,7.0233e-07,-2.77e-06,0.0,0 STARLINK-3605,1 51805U 22017AP  24204.19345468 -.00000277  00000-0  70233-6 0  9991,2 51805  53.2167 122.4819 0001306  96.1609 263.9532 15.08839987134346,6917.88,95.438,540.649,538.842,0.0
51805.0,STARLINK-3605,PAYLOAD,2024-07-22 18:57:02,15.08837662,0.0001372,53.2167,119.8068,103.4489,256.6656,0.00014711,2.054e-05,0.0,0 STARLINK-3605,1 51805U 22017AP  24204.78961198  .00002054  00000-0  14711-3 0  9990,2 51805  53.2167 119.8068 0001372 103.4489 256.6656 15.08837662134437,6917.888,95.438,540.702,538.803,0.0
51805.0,STARLINK-3605,PAYLOAD,2024-07-22 22:07:48,15.08838148,0.0001429,53.2166,119.2112,106.308,253.8069,0.00014471,2.016e-05,0.0,0 STARLINK-3605,1 51805U 22017AP  24204.92209211  .00002016  00000-0  14471-3 0  9998,2 51805  53.2166 119.2112 0001429 106.3080 253.8069 15.08838148134451,6917.886,95.438,540.74,538.762,0.0
51805.0,STARLINK-3605,PAYLOAD,2024-07-23 10:50:52,15.08859406,0.0001222,53.2167,116.8341,99.8588,260.2542,0.00022158,3.242e-05,0.0,0 STARLINK-3605,1 51805U 22017AP  24205.45199609  .00003242  00000-0  22158-3 0  9999,2 51805  53.2167 116.8341 0001222  99.8588 260.2542 15.08859406134536,6917.821,95.436,540.531,538.841,0.0
51805.0,STARLINK-3605,PAYLOAD,2024-07-23 18:47:49,15.08840159,0.0002674,53.2163,115.3465,77.1313,282.9977,0.00011533,1.548e-05,0.0,0 STARLINK-3605,1 51805U 22017AP  24205.78321662  .00001548  00000-0  11533-3 0  9993,2 51805  53.2163 115.3465 0002674  77.1313 282.9977 15.08840159134583,6917.88,95.438,541.595,537.895,0.0
51805.0,STARLINK-3605,PAYLOAD,2024-07-24 02:44:47,15.08821432,0.0001498,53.2166,113.8598,79.715,280.4011,-3.8552e-05,-9.01e-06,0.0,0 STARLINK-3605,1 51805U 22017AP  24206.11443323 -.00000901  00000-0 -38552-4 0  9995,2 51805  53.2166 113.8598 0001498  79.7150 280.4011 15.08821432134637,6917.937,95.439,540.838,538.766,0.0
51805.0,STARLINK-3605,PAYLOAD,2024-07-25 02:35:32,15.08848743,0.000128,53.2166,109.4049,91.1932,268.9207,0.00022198,3.248e-05,0.0,0 STARLINK-3605,1 51805U 22017AP  24207.10801510  .00003248  00000-0  22198-3 0  9994,2 51805  53.2166 109.4049 0001280  91.1932 268.9207 15.08848743134782,6917.854,95.437,540.604,538.833,0.0
51805.0,STARLINK-3605,PAYLOAD,2024-07-26 00:50:56,15.08836275,0.0001057,53.2156,105.2333,104.6039,255.5071,0.00023455,3.447e-05,0.0,0 STARLINK-3605,1 51805U 22017AP  24208.03538152  .00003447  00000-0  23455-3 0  9994,2 51805  53.2156 105.2333 0001057 104.6039 255.5071 15.08836275134925,6917.892,95.438,540.488,539.026,0.0
51805.0,STARLINK-3605,PAYLOAD,2024-07-26 10:23:15,15.08852142,0.0001259,53.2169,103.4502,82.5536,277.5599,0.00036511,5.529e-05,0.0,0 STARLINK-3605,1 51805U 22017AP  24208.43281615  .00005529  00000-0  36511-3 0  9997,2 51805  53.2169 103.4502 0001259  82.5536 277.5599 15.08852142134983,6917.843,95.437,540.579,538.837,0.0
51805.0,STARLINK-3605,PAYLOAD,2024-07-27 21:21:44,15.08833439,0.0001042,53.2152,96.9067,98.6912,261.4198,0.00021114,3.074e-05,0.0,0 STARLINK-3605,1 51805U 22017AP  24209.89010216  .00003074  00000-0  21114-3 0  9991,2 51805  53.2152  96.9067 0001042  98.6912 261.4198 15.08833439135204,6917.9,95.438,540.486,539.045,0.0
51805.0,STARLINK-3605,PAYLOAD,2024-07-27 22:57:08,15.08829291,0.0001148,53.2152,96.608,115.2752,244.8359,0.00027269,4.053e-05,0.0,0 STARLINK-3605,1 51805U 22017AP  24209.95634298  .00004053  00000-0  27269-3 0  9995,2 51805  53.2152  96.6080 0001148 115.2752 244.8359 15.08829291135217,6917.913,95.438,540.572,538.984,0.0
51805.0,STARLINK-3605,PAYLOAD,2024-07-28 22:47:55,15.08832326,0.0001593,53.218,92.1532,93.2529,266.8646,0.00012943,1.772e-05,0.0,0 STARLINK-3605,1 51805U 22017AP  24210.94994296  .00001772  00000-0  12943-3 0  9991,2 51805  53.2180  92.1532 0001593  93.2529 266.8646 15.08832326135364,6917.904,95.438,540.871,538.667,0.0
51805.0,STARLINK-3605,PAYLOAD,2024-07-29 21:03:18,15.08837858,0.0001481,53.2173,87.9907,97.4687,262.6473,0.00015132,2.121e-05,0.0,0 STARLINK-3605,1 51805U 22017AP  24211.87730306  .00002121  00000-0  15132-3 0  9996,2 51805  53.2173  87.9907 0001481  97.4687 262.6473 15.08837858135504,6917.887,95.438,540.776,538.727,0.0
51805.0,STARLINK-3605,PAYLOAD,2024-07-29 22:38:42,15.08838525,0.0001444,53.2172,87.6939,96.0117,264.104,0.00015465,2.174e-05,0.0,0 STARLINK-3605,1 51805U 22017AP  24211.94354311  .00002174  00000-0  15465-3 0  9999,2 51805  53.2172  87.6939 0001444  96.0117 264.1040 15.08838525135517,6917.885,95.438,540.749,538.751,0.0
51805.0,STARLINK-3605,PAYLOAD,2024-07-30 08:11:00,15.08847348,0.0001431,53.2172,85.9099,96.9496,263.1659,0.00021672,3.164e-05,0.0,0 STARLINK-3605,1 51805U 22017AP  24212.34097635  .00003164  00000-0  21672-3 0  9994,2 51805  53.2172  85.9099 0001431  96.9496 263.1659 15.08847348135574,6917.858,95.437,540.713,538.733,0.0
51805.0,STARLINK-3605,PAYLOAD,2024-07-30 16:07:57,15.08834648,0.000141,53.2173,84.423,94.0108,266.1045,6.3501e-05,7.23e-06,0.0,0 STARLINK-3605,1 51805U 22017AP  24212.67218896  .00000723  00000-0  63501-4 0  9990,2 51805  53.2173  84.4230 0001410  94.0108 266.1045 15.08834648135629,6917.897,95.438,540.737,538.786,0.0
51805.0,STARLINK-3605,PAYLOAD,2024-07-30 22:29:29,15.08843711,0.0001704,53.2173,83.236,99.8772,260.2412,0.00010677,1.412e-05,0.0,0 STARLINK-3605,1 51805U 22017AP  24212.93714303  .00001412  00000-0  10677-3 0  9994,2 51805  53.2173  83.2360 0001704  99.8772 260.2412 15.08843711135664,6917.869,95.437,540.913,538.555,0.0
51805.0,STARLINK-3605,PAYLOAD,2024-07-31 08:01:46,15.08857213,0.0001543,53.2177,81.4521,99.2639,260.8528,0.00020585,2.991e-05,0.0,0 STARLINK-3605,1 51805U 22017AP  24213.33457105  .00002991  00000-0  20585-3 0  9995,2 51805  53.2177  81.4521 0001543  99.2639 260.8528 15.08857213135727,6917.828,95.436,540.76,538.625,0.0
51805.0,STARLINK-3605,PAYLOAD,2024-07-31 20:44:53,15.08827403,0.0001463,53.2163,79.0721,106.4166,253.6987,-0.00019501,-3.389e-05,0.0,0 STARLINK-3605,1 51805U 22017AP  24213.86450868 -.00003389  00000-0 -19501-3 0  9992,2 51805  53.2163  79.0721 0001463 106.4166 253.6987 15.08827403135800,6917.919,95.438,540.796,538.772,0.0
51805.0,STARLINK-3605,PAYLOAD,2024-08-01 20:35:39,15.08850874,0.0001805,53.2176,74.6156,119.6478,240.4694,0.00012629,1.723e-05,0.0,0 STARLINK-3605,1 51805U 22017AP  24214.85809935  .00001723  00000-0  12629-3 0  9997,2 51805  53.2176  74.6156 0001805 119.6478 240.4694 15.08850874135952,6917.847,95.437,540.961,538.463,0.0
51805.0,STARLINK-3605,PAYLOAD,2024-08-01 22:11:03,15.08852021,0.0001297,53.2163,74.3138,100.5821,259.5318,0.00038978,5.923e-05,0.0,0 STARLINK-3605,1 51805U 22017AP  24214.92434109  .00005923  00000-0  38978-3 0  9993,2 51805  53.2163  74.3138 0001297 100.5821 259.5318 15.08852021135962,6917.844,95.437,540.606,538.811,0.0
51805.0,STARLINK-3605,PAYLOAD,2024-08-02 20:26:27,15.08841105,0.0001177,53.2161,70.1479,101.1168,258.9956,0.00018971,2.733e-05,0.0,0 STARLINK-3605,1 51805U 22017AP  24215.85170794  .00002733  00000-0  18971-3 0  9990,2 51805  53.2161  70.1479 0001177 101.1168 258.9956 15.08841105136109,6917.877,95.437,540.556,538.928,0.0
51805.0,STARLINK-3605,PAYLOAD,2024-08-02 22:01:50,15.08837698,0.0001135,53.2152,69.8529,98.1855,261.9265,9.9102e-05,1.29e-05,0.0,0 STARLINK-3605,1 51805U 22017AP  24215.91794897  .00001290  00000-0  99102-4 0  9996,2 51805  53.2152  69.8529 0001135  98.1855 261.9265 15.08837698136112,6917.887,95.438,540.538,538.967,0.0
